ONEWEB-0525             
1 54143U 22138AG  23312.88817167 -.00008410  00000+0 -21066-1 0  9990
2 54143  87.9152 134.3189 0002110  75.6039 284.5328 13.19703381 51356
ONEWEB-0526             
1 54144U 22138AH  23312.92128934  .00000058  00000+0  11216-3 0  9999
2 54144  87.9173 134.3135 0001459  83.7557 276.3741 13.19722890 51333
ONEWEB-0529             
1 54145U 22138AJ  23312.92445953  .00000069  00000+0  14008-3 0  9997
2 54145  87.9180 134.3113 0001376  70.4943 289.6338 13.19726537 51351
ONEWEB-0531             
1 54146U 22138AK  23312.95499383  .00000022  00000+0  22122-4 0  9993
2 54146  87.9203 103.7771 0001774 131.9062 228.2223 13.20770151 54612
ONEWEB-0535             
1 54147U 22138AL  23312.88181193 -.00000055  00000+0 -16914-3 0  9992
2 54147  87.9173 134.3207 0002138 101.5650 258.5722 13.19725220 51368
ONEWEB-0536             
1 54148U 22138AM  23312.94237357  .00000064  00000+0  12645-3 0  9999
2 54148  87.9203 103.8295 0002367 117.8119 242.3254 13.20771750 54607
GSLV R/B                
1 54149U 22138AN  23312.88760585  .00003900  00000+0  40730-3 0  9995
2 54149  87.3774  90.6711 0024216 356.7545   3.3521 14.89254041 56839
ONEWEB-0527             
1 54642U 22166A   23312.81888262  .00000030  00000+0  40295-4 0  9998
2 54642  87.9212  73.4010 0001483 101.7131 258.4169 13.21824329 45859
